STARLINK-37035          
1 68180U 26050P   26078.56718619 -.00690810  16965-3 -13647-2 0  9991
2 68180  53.1621 232.5248 0000593 324.9508  35.1483 15.99266404  2032
STARLINK-37032          
1 68181U 26050Q   26078.56692649 -.00700217  17407-3 -13712-2 0  9994
2 68181  53.1621 232.5236 0000799 332.8854  27.2135 15.99422141  2038
STARLINK-37082          
1 68182U 26050R   26078.56668515 -.00691167  17038-3 -13413-2 0  9991
2 68182  53.1619 232.5220 0000964 324.6980  35.3987 15.99579072  2033
STARLINK-37102          
1 68183U 26050S   26078.56647828 -.00683018  16706-3 -13158-2 0  9999
2 68183  53.1620 232.5205 0000831 338.3120  21.7875 15.99705953  2034
STARLINK-36964          
1 68184U 26050T   26078.56625431 -.00664681  15944-3 -12697-2 0  9991
2 68184  53.1619 232.5189 0000643 330.0119  30.0875 15.99849090  2036
STARLINK-37061          
1 68185U 26050U   26078.56605935 -.00873020  25966-3 -16679-2 0  9997
2 68185  53.1616 232.5178 0000687  57.4494 302.6603 15.99892771  2037
STARLINK-37079          
1 68186U 26050V   26078.56582144 -.00680419  16664-3 -12815-2 0  9995
2 68186  53.1620 232.5158 0001058 326.7573  33.3392 16.00099925  2030
STARLINK-37006          
1 68187U 26050W   26078.56557438 -.00682857  16797-3 -12753-2 0  9990
2 68187  53.1620 232.5147 0000720 325.8020  34.2964 16.00247413  2033
STARLINK-36340          
1 68188U 26050X   26078.56537335 -.00691967  17220-3 -12834-2 0  9999
2 68188  53.1619 232.5131 0000884 330.3319  29.7662 16.00370058  1932
STARLINK-36305          
1 68189U 26050Y   26078.56515448 -.00680572  16745-3 -12521-2 0  9995
2 68189  53.1619 232.5118 0000664 330.0991  30.0002 16.00507461  1930
STARLINK-37071          
1 68190U 26050Z   26078.56469545 -.00685813  17028-3 -12410-2 0  9998
2 68190  53.1620 232.5085 0000787 120.8561 239.2548 16.00795573  2034
STARLINK-37091          
1 68191U 26050AA  26078.56446108 -.00661998  16019-3 -11877-2 0  9992
2 68191  53.1618 232.5067 0000718 334.0180  26.0815 16.00938134  2033
STARLINK-37098          
1 68192U 26050AB  26078.56422956 -.00678632  16763-3 -12086-2 0  9990
2 68192  53.1618 232.5054 0000647 327.3796  32.7195 16.01069674  2039
STARLINK-37090          
1 68193U 26050AC  26078.56374858 -.00651387  15641-3 -11396-2 0  9993
2 68193  53.1621 232.5012 0000711 333.6069  26.4927 16.01369308  2033
STARLINK-37093          
1 68194U 26050AD  26078.56490579 -.00668674  16258-3 -12185-2 0  9992
2 68194  53.1623 232.5098 0001079 125.0257 235.0876 16.00670231  2030
STARLINK-37058          
1 68195U 26050AE  26078.31433581 -.00749084  20203-3 -12605-2 0  9993
2 68195  53.1616 233.7917 0002524 340.0442  20.0490 16.02049525   431
YAOGAN-50 02            
1 68196U 26051A   26079.00002888  .00000241  00000+0  28234-4 0  9993
2 68196 141.9942 256.6193 0085589 153.1893 207.3280 14.02354822   631
CZ-6A R/B               
1 68197U 26051B   26080.37188536  .00001609  00000+0  22917-3 0  9991
2 68197 142.0316 265.8125 0185780 134.2387 227.3755 14.56362782   865
2026-052A               
1 68198U 26052A   26080.51972517  .00008631  00000+0  53598-3 0  9990
2 68198  97.5374 156.6853 0012396 245.1193 114.8748 15.09859768   819
2026-052C               
1 68200U 26052C   26080.58494299  .00005969  00000+0  36928-3 0  9996
2 68200  97.5376 156.7523 0011263 248.9590 111.0435 15.10141020   813
2026-052D               
1 68201U 26052D   26080.51816418  .00009447  00000+0  57941-3 0  9994
2 68201  97.5376 156.6850 0010415 245.0906 114.9242 15.10304782   817
2026-052E               
1 68202U 26052E   26080.51814990  .00006878  00000+0  42309-3 0  9995
2 68202  97.5375 156.6857 0010350 250.1730 109.8384 15.10303568   815
2026-052F               
1 68203U 26052F   26080.58351116  .00009927  00000+0  60449-3 0  9992
2 68203  97.5368 156.7581 0009576 241.0714 118.9555 15.10561346   824
2026-052G               
1 68204U 26052G   26080.58333221  .00008486  00000+0  51680-3 0  9996
2 68204  97.5378 156.7516 0009161 244.5273 115.5009 15.10608956   828
KZ-11 R/B               
1 68205U 26052H   26080.60676117  .00045717  20159-5  67655-3 0  9994
2 68205  97.3422 156.6480 0548579 355.4396   4.1921 14.66767940   808
2026-052J               
1 68206U 26052J   26080.60628123  .00081856  27261-5  11959-2 0  9999
2 68206  97.3425 156.6483 0547704 355.5227   4.1184 14.67103442   801
TEN-KOH 2               
1 68261U 25241B   26079.97450807  .00008575  00000+0  37783-3 0  9996
2 68261  51.6356  19.2011 0004440 194.7242 165.3606 15.22578809  1461
