OBJECT_NAME,OBJECT_ID,EPOCH,MEAN_MOTION,ECCENTRICITY,INCLINATION,RA_OF_ASC_NODE,ARG_OF_PERICENTER,MEAN_ANOMALY,EPHEMERIS_TYPE,CLASSIFICATION_TYPE,NORAD_CAT_ID,ELEMENT_SET_NO,REV_AT_EPOCH,BSTAR,MEAN_MOTION_DOT,MEAN_MOTION_DDOT
STARLINK-37035,2026-050P,2026-03-19T13:36:44.886816,15.99266404,.0000593,53.1621,232.5248,324.9508,35.1483,0,U,68180,999,203,-.13647E-2,-.69081E-2,.16965E-3
STARLINK-37032,2026-050Q,2026-03-19T13:36:22.448736,15.99422141,.0000799,53.1621,232.5236,332.8854,27.2135,0,U,68181,999,203,-.13712E-2,-.700217E-2,.17407E-3
STARLINK-37082,2026-050R,2026-03-19T13:36:01.596960,15.99579072,.0000964,53.1619,232.5220,324.6980,35.3987,0,U,68182,999,203,-.13413E-2,-.691167E-2,.17038E-3
STARLINK-37102,2026-050S,2026-03-19T13:35:43.723392,15.99705953,.0000831,53.1620,232.5205,338.3120,21.7875,0,U,68183,999,203,-.13158E-2,-.683018E-2,.16706E-3
STARLINK-36964,2026-050T,2026-03-19T13:35:24.372384,15.99849090,.0000643,53.1619,232.5189,330.0119,30.0875,0,U,68184,999,203,-.12697E-2,-.664681E-2,.15944E-3
STARLINK-37061,2026-050U,2026-03-19T13:35:07.527840,15.99892771,.0000687,53.1616,232.5178,57.4494,302.6603,0,U,68185,999,203,-.16679E-2,-.87302E-2,.25966E-3
STARLINK-37079,2026-050V,2026-03-19T13:34:46.972416,16.00099925,.0001058,53.1620,232.5158,326.7573,33.3392,0,U,68186,999,203,-.12815E-2,-.680419E-2,.16664E-3
STARLINK-37006,2026-050W,2026-03-19T13:34:25.626432,16.00247413,.000072,53.1620,232.5147,325.8020,34.2964,0,U,68187,999,203,-.12753E-2,-.682857E-2,.16797E-3
STARLINK-36340,2026-050X,2026-03-19T13:34:08.257440,16.00370058,.0000884,53.1619,232.5131,330.3319,29.7662,0,U,68188,999,193,-.12834E-2,-.691967E-2,.1722E-3
STARLINK-36305,2026-050Y,2026-03-19T13:33:49.347072,16.00507461,.0000664,53.1619,232.5118,330.0991,30.0002,0,U,68189,999,193,-.12521E-2,-.680572E-2,.16745E-3
STARLINK-37071,2026-050Z,2026-03-19T13:33:09.686880,16.00795573,.0000787,53.1620,232.5085,120.8561,239.2548,0,U,68190,999,203,-.1241E-2,-.685813E-2,.17028E-3
STARLINK-37091,2026-050AA,2026-03-19T13:32:49.437312,16.00938134,.0000718,53.1618,232.5067,334.0180,26.0815,0,U,68191,999,203,-.11877E-2,-.661998E-2,.16019E-3
STARLINK-37098,2026-050AB,2026-03-19T13:32:29.433984,16.01069674,.0000647,53.1618,232.5054,327.3796,32.7195,0,U,68192,999,203,-.12086E-2,-.678632E-2,.16763E-3
STARLINK-37090,2026-050AC,2026-03-19T13:31:47.877312,16.01369308,.0000711,53.1621,232.5012,333.6069,26.4927,0,U,68193,999,203,-.11396E-2,-.651387E-2,.15641E-3
STARLINK-37093,2026-050AD,2026-03-19T13:33:27.860256,16.00670231,.0001079,53.1623,232.5098,125.0257,235.0876,0,U,68194,999,203,-.12185E-2,-.668674E-2,.16258E-3
STARLINK-37058,2026-050AE,2026-03-19T07:32:38.613984,16.02049525,.0002524,53.1616,233.7917,340.0442,20.0490,0,U,68195,999,43,-.12605E-2,-.749084E-2,.20203E-3
YAOGAN-50 02,2026-051A,2026-03-20T00:00:02.495232,14.02354822,.00855894,141.9942,256.6193,153.1893,207.3280,0,U,68196,999,63,.2823449E-4,.241E-5,0
CZ-6A R/B,2026-051B,2026-03-21T08:55:30.895104,14.56362782,.01857802,142.0316,265.8125,134.2387,227.3755,0,U,68197,999,86,.22917322E-3,.1609E-4,0
2026-052A,2026-052A,2026-03-21T12:28:24.254688,15.09859768,.00123964,97.5374,156.6853,245.1193,114.8748,0,U,68198,999,81,.53598134E-3,.8631E-4,0
2026-052C,2026-052C,2026-03-21T14:02:19.074336,15.10141020,.00112635,97.5376,156.7523,248.9590,111.0435,0,U,68200,999,81,.36928225E-3,.5969E-4,0
2026-052D,2026-052D,2026-03-21T12:26:09.385152,15.10304782,.0010415,97.5376,156.6850,245.0906,114.9242,0,U,68201,999,81,.57941464E-3,.9447E-4,0
2026-052E,2026-052E,2026-03-21T12:26:08.151360,15.10303568,.00103504,97.5375,156.6857,250.1730,109.8384,0,U,68202,999,81,.42309177E-3,.6878E-4,0
2026-052F,2026-052F,2026-03-21T14:00:15.364224,15.10561346,.00095763,97.5368,156.7581,241.0714,118.9555,0,U,68203,999,82,.60449038E-3,.9927E-4,0
2026-052G,2026-052G,2026-03-21T13:59:59.902944,15.10608956,.0009161,97.5378,156.7516,244.5273,115.5009,0,U,68204,999,82,.51680325E-3,.8486E-4,0
KZ-11 R/B,2026-052H,2026-03-21T14:33:44.165088,14.66767940,.05485797,97.3422,156.6480,355.4396,4.1921,0,U,68205,999,80,.67654705E-3,.45717E-3,.2015935E-5
2026-052J,2026-052J,2026-03-21T14:33:02.698272,14.67103442,.05477042,97.3425,156.6483,355.5227,4.1184,0,U,68206,999,80,.11958763E-2,.81856E-3,.2726141E-5
TEN-KOH 2,2025-241B,2026-03-20T23:23:17.497248,15.22578809,.00044402,51.6356,19.2011,194.7242,165.3606,0,U,68261,999,146,.37783443E-3,.8575E-4,0
